[{"OBJECT_NAME":"BEIJING 1","OBJECT_ID":"2005-043A","EPOCH":"2026-04-27T08:27:28.572192","MEAN_MOTION":14.63501238,"ECCENTRICITY":0.00158914,"INCLINATION":98.2823,"RA_OF_ASC_NODE":250.304,"ARG_OF_PERICENTER":81.451,"MEAN_ANOMALY":278.8492,"EPHEMERIS_TYPE":0,"CLASSIFICATION_TYPE":"U","NORAD_CAT_ID":28890,"ELEMENT_SET_NO":999,"REV_AT_EPOCH":9321,"BSTAR":8.0642433e-5,"MEAN_MOTION_DOT":3.69e-6,"MEAN_MOTION_DDOT":0},{"OBJECT_NAME":"HUANJING 1A (HJ-1A)","OBJECT_ID":"2008-041A","EPOCH":"2026-04-27T06:09:18.208800","MEAN_MOTION":14.83870291,"ECCENTRICITY":0.00178543,"INCLINATION":97.6669,"RA_OF_ASC_NODE":105.0753,"ARG_OF_PERICENTER":309.6553,"MEAN_ANOMALY":50.3086,"EPHEMERIS_TYPE":0,"CLASSIFICATION_TYPE":"U","NORAD_CAT_ID":33320,"ELEMENT_SET_NO":999,"REV_AT_EPOCH":95085,"BSTAR":0.0002512182,"MEAN_MOTION_DOT":2.039e-5,"MEAN_MOTION_DDOT":0},{"OBJECT_NAME":"HUANJING 1B (HJ-1B)","OBJECT_ID":"2008-041B","EPOCH":"2026-04-27T06:29:33.584640","MEAN_MOTION":14.83225621,"ECCENTRICITY":0.00363372,"INCLINATION":97.6511,"RA_OF_ASC_NODE":108.4121,"ARG_OF_PERICENTER":353.2784,"MEAN_ANOMALY":6.7939,"EPHEMERIS_TYPE":0,"CLASSIFICATION_TYPE":"U","NORAD_CAT_ID":33321,"ELEMENT_SET_NO":999,"REV_AT_EPOCH":95086,"BSTAR":0.00023701099,"MEAN_MOTION_DOT":1.906e-5,"MEAN_MOTION_DDOT":0},{"OBJECT_NAME":"YAOGAN-4","OBJECT_ID":"2008-061A","EPOCH":"2026-04-27T05:32:19.861152","MEAN_MOTION":14.8310267,"ECCENTRICITY":0.00130275,"INCLINATION":97.9289,"RA_OF_ASC_NODE":51.1273,"ARG_OF_PERICENTER":233.5726,"MEAN_ANOMALY":126.4287,"EPHEMERIS_TYPE":0,"CLASSIFICATION_TYPE":"U","NORAD_CAT_ID":33446,"ELEMENT_SET_NO":999,"REV_AT_EPOCH":93811,"BSTAR":0.00013288926,"MEAN_MOTION_DOT":1.03e-5,"MEAN_MOTION_DDOT":0},{"OBJECT_NAME":"DEIMOS-1","OBJECT_ID":"2009-041A","EPOCH":"2026-04-27T07:33:50.734656","MEAN_MOTION":14.75181287,"ECCENTRICITY":0.00019378,"INCLINATION":97.7344,"RA_OF_ASC_NODE":276.7652,"ARG_OF_PERICENTER":46.2217,"MEAN_ANOMALY":313.9153,"EPHEMERIS_TYPE":0,"CLASSIFICATION_TYPE":"U","NORAD_CAT_ID":35681,"ELEMENT_SET_NO":999,"REV_AT_EPOCH":89938,"BSTAR":6.2097708e-5,"MEAN_MOTION_DOT":3.72e-6,"MEAN_MOTION_DDOT":0},{"OBJECT_NAME":"UK-DMC 2","OBJECT_ID":"2009-041C","EPOCH":"2026-04-27T07:31:44.200128","MEAN_MOTION":14.75945224,"ECCENTRICITY":0.00017191,"INCLINATION":97.8749,"RA_OF_ASC_NODE":253.5484,"ARG_OF_PERICENTER":89.0098,"MEAN_ANOMALY":271.1309,"EPHEMERIS_TYPE":0,"CLASSIFICATION_TYPE":"U","NORAD_CAT_ID":35683,"ELEMENT_SET_NO":999,"REV_AT_EPOCH":89906,"BSTAR":6.981277e-5,"MEAN_MOTION_DOT":4.31e-6,"MEAN_MOTION_DDOT":0},{"OBJECT_NAME":"DMC3-FM1","OBJECT_ID":"2015-032A","EPOCH":"2026-04-27T06:56:24.292320","MEAN_MOTION":14.85677408,"ECCENTRICITY":0.00044811,"INCLINATION":97.6537,"RA_OF_ASC_NODE":344.4425,"ARG_OF_PERICENTER":208.6496,"MEAN_ANOMALY":151.4475,"EPHEMERIS_TYPE":0,"CLASSIFICATION_TYPE":"U","NORAD_CAT_ID":40715,"ELEMENT_SET_NO":999,"REV_AT_EPOCH":58235,"BSTAR":-2.4359941e-5,"MEAN_MOTION_DOT":-2.62e-6,"MEAN_MOTION_DDOT":0},{"OBJECT_NAME":"DMC3-FM2","OBJECT_ID":"2015-032B","EPOCH":"2026-04-27T05:51:25.232256","MEAN_MOTION":14.85682374,"ECCENTRICITY":0.00049835,"INCLINATION":97.6589,"RA_OF_ASC_NODE":345.9376,"ARG_OF_PERICENTER":216.3607,"MEAN_ANOMALY":143.7271,"EPHEMERIS_TYPE":0,"CLASSIFICATION_TYPE":"U","NORAD_CAT_ID":40716,"ELEMENT_SET_NO":999,"REV_AT_EPOCH":58234,"BSTAR":5.9672107e-5,"MEAN_MOTION_DOT":4.66e-6,"MEAN_MOTION_DDOT":0},{"OBJECT_NAME":"DMC3-FM3","OBJECT_ID":"2015-032C","EPOCH":"2026-04-27T08:01:39.115200","MEAN_MOTION":14.85684532,"ECCENTRICITY":0.00041625,"INCLINATION":97.6644,"RA_OF_ASC_NODE":347.7449,"ARG_OF_PERICENTER":212.7359,"MEAN_ANOMALY":147.3599,"EPHEMERIS_TYPE":0,"CLASSIFICATION_TYPE":"U","NORAD_CAT_ID":40717,"ELEMENT_SET_NO":999,"REV_AT_EPOCH":58236,"BSTAR":0.0001195184,"MEAN_MOTION_DOT":9.85e-6,"MEAN_MOTION_DDOT":0}]
