BEIJING 1               
1 28890U 05043A   26117.35241403  .00000369  00000+0  80642-4 0  9999
2 28890  98.2823 250.3040 0015891  81.4510 278.8492 14.63501238 93216
HUANJING 1A (HJ-1A)     
1 33320U 08041A   26117.25646075  .00002039  00000+0  25122-3 0  9994
2 33320  97.6669 105.0753 0017854 309.6553  50.3086 14.83870291950855
HUANJING 1B (HJ-1B)     
1 33321U 08041B   26117.27052760  .00001906  00000+0  23701-3 0  9992
2 33321  97.6511 108.4121 0036337 353.2784   6.7939 14.83225621950860
YAOGAN-4                
1 33446U 08061A   26117.23078543  .00001030  00000+0  13289-3 0  9993
2 33446  97.9289  51.1273 0013027 233.5726 126.4287 14.83102670938110
DEIMOS-1                
1 35681U 09041A   26117.31517054  .00000372  00000+0  62098-4 0  9990
2 35681  97.7344 276.7652 0001937  46.2217 313.9153 14.75181287899382
UK-DMC 2                
1 35683U 09041C   26117.31370602  .00000431  00000+0  69813-4 0  9996
2 35683  97.8749 253.5484 0001719  89.0098 271.1309 14.75945224899062
DMC3-FM1                
1 40715U 15032A   26117.28917005 -.00000262  00000+0 -24360-4 0  9997
2 40715  97.6537 344.4425 0004481 208.6496 151.4475 14.85677408582354
DMC3-FM2                
1 40716U 15032B   26117.24404204  .00000466  00000+0  59672-4 0  9994
2 40716  97.6589 345.9376 0004983 216.3607 143.7271 14.85682374582345
DMC3-FM3                
1 40717U 15032C   26117.33448050  .00000985  00000+0  11952-3 0  9996
2 40717  97.6644 347.7449 0004162 212.7359 147.3599 14.85684532582365
